<?xml version="1.0" encoding="UTF-8"?>
<kml xmlns="http://www.opengis.net/kml/2.2">
	<Document>
		<open>0</open>
		<Style id="TrackStyle">
			<LineStyle>
				<width>6.0</width>
				<color>CC1400FF</color>
			</LineStyle>
		</Style>
		<Placemark>	<styleUrl>#TrackStyle</styleUrl>	<name>20190505AM_kayak_StAnne_Pois</name>	<Snippet>View Info</Snippet>	<description>		<![CDATA[			<div xmlns="http://www.opengis.net/kml/2.2" style="font-size: 11px; min-height: 10px; min-width: 10px" ALIGN=center>				<table style="width: 200; margin: 8px 0" border="0">	<tr>		<td style="font-weight: bold; width: 100px;">Start Time:</td>		<td ALIGN=right>05/05/19 09.16</td>	</tr>	<tr>		<td style="font-weight: bold; width: 100px;">End Time:</td>		<td ALIGN=right>05/05/19 12.28</td>	</tr>	<tr>		<td COLSPAN="2"><hr></td>	</tr>	<tr>		<td COLSPAN="2" ALIGN=center>Active track info</td>	</tr>	<tr>		<td COLSPAN="2"><hr></td>	</tr>	<tr>		<td style="font-weight: bold; width: 100px;">Distance:</td>		<td ALIGN=right>10,5 NM</td>	</tr>	<tr>		<td style="font-weight: bold; width: 100px;">Total Time:</td>		<td ALIGN=right>3H12'</td>	</tr>	<tr>		<td style="font-weight: bold; width: 100px;">Average Speed:</td>		<td ALIGN=right>3,3 kts</td>	</tr>	<tr>		<td style="font-weight: bold; width: 100px;">Max Speed:</td>		<td ALIGN=right>7,9 kts</td>	</tr></table>			</div>		]]>	</description>	<LineString>		<tesselate>1</tesselate>		<altitudeMode>clampToGround</altitudeMode>		<coordinates>
				-4.554171471503051,48.36124789550989,0
				-4.553884021924189,48.361205991290305,0
				-4.553372002361841,48.361056333080136,0
				-4.553021673187603,48.3608827290022,0
				-4.55291387959553,48.360828851753546,0
				-4.552779137605438,48.36078096081773,0
				-4.552644395615347,48.360739056211735,0
				-4.552527619223934,48.360691165191014,0
				-4.55241982563186,48.36063130135142,0
				-4.551647304888669,48.360206266055165,0
				-4.551323924112449,48.35999674030059,0
				-4.551216130520376,48.359936875640024,0
				-4.550614282964633,48.359643537780364,0
				-4.5501651429976615,48.35924244040579,0
				-4.549949555813515,48.358991004610736,0
				-4.549886676218139,48.35869766127202,0
				-4.54986871061946,48.358595888696236,0
				-4.54986871061946,48.35849411591595,0
				-4.549859727820121,48.358200769698975,0
				-4.5497519342280475,48.357817621060576,0
				-4.549680071833332,48.357739793639205,0
				-4.549617192237956,48.357644005879486,0
				-4.549527364244561,48.35746440334165,0
				-4.549356691057112,48.35730874729366,0
				-4.549203983468342,48.35694355238008,0
				-4.549150086672306,48.356847763114324,0
				-4.549114155474948,48.35675796051316,0
				-4.54906924147825,48.35666217089637,0
				-4.549042293080232,48.35656638109842,0
				-4.548970430685516,48.356380787849325,0
				-4.548943482287498,48.35628499751916,0
				-4.5488895854914615,48.35608144246605,0
				-4.548853654294104,48.35570426476401,0
				-4.549006361882874,48.35520135679184,0
				-4.549033310280892,48.35509957718988,0
				-4.54906924147825,48.35499779738343,0
				-4.549114155474948,48.354896017372425,0
				-4.549159069471645,48.35478825007901,0
				-4.549212966267682,48.35469245673681,0
				-4.549401605053809,48.3543990884993,0
				-4.549491433047203,48.35430329442107,0
				-4.549563295441919,48.35422546159909,0
				-4.549635157836635,48.354147628657536,0
				-4.54971600303069,48.35406979559637,0
				-4.549796848224744,48.35399196241559,0
				-4.54986871061946,48.3539141291152,0
				-4.5501561601983225,48.353447126801186,0
				-4.550245988191716,48.35335133092252,0
				-4.55034479898445,48.353267509380046,0
				-4.550461575375863,48.35318368769888,0
				-4.5505873345666155,48.35309387860082,0
				-4.550704110958028,48.353016043920384,0
				-4.55082987014878,48.352938209120325,0
				-4.550955629339533,48.352878336115815,0
				-4.551072405730945,48.35281846304055,0
				-4.551189182122357,48.35277056452935,0
				-4.55131494131311,48.35272266597291,0
				-4.5514407005038615,48.35267476737113,0
				-4.551566459694614,48.352632856057404,0
				-4.551701201684706,48.35258495737071,0
				-4.5518359436747975,48.35254304598269,0
				-4.551970685664889,48.352501134560015,0
				-4.55210542765498,48.35244724839418,0
				-4.552249152444411,48.35239336217099,0
				-4.552374911635163,48.35234546325783,0
				-4.552518636424594,48.35229756429937,0
				-4.554324179091822,48.35165691137563,0
				-4.5556266849960405,48.35118390074624,0
				-4.55690224250224,48.35069891057811,0
				-4.559112011139742,48.349836694369515,0
				-4.560378585846602,48.34921397353633,0
				-4.561510418563372,48.348597232858616,0
				-4.5624356468953335,48.34797449678923,0
				-4.56345968602003,48.347537379398915,0
				-4.565489798670743,48.346944570337016,0
				-4.566837218571659,48.34648947988602,0
				-4.5674839801240985,48.3461960641383,0
				-4.569253591593967,48.345178077961236,0
				-4.569738662758297,48.344908607608296,0
				-4.56985543914971,48.34485471336571,0
				-4.569963232741783,48.34477686602523,0
				-4.571086082659213,48.34402233945042,0
				-4.571876569001083,48.34320192875739,0
				-4.572855694129082,48.34220783668762,0
				-4.57385278485576,48.34114784956253,0
				-4.574409718414805,48.340525021926844,0
				-4.575056479967245,48.340033940893605,0
				-4.576170347085335,48.339333243862754,0
				-4.577041678621261,48.33880621748968,0
				-4.57721235180871,48.338632537143255,0
				-4.5772393002067275,48.33852473524955,0
				-4.576906936631169,48.33834506491711,0
				-4.576610504252968,48.33802764577302,0
				-4.576610504252968,48.33783599551594,0
				-4.576987781825224,48.33741675805174,0
				-4.577993855351241,48.336668111096806,0
				-4.579233481660084,48.33581164541793,0
				-4.580077864797991,48.33503302769572,0
				-4.580949196333916,48.334266377020754,0
				-4.58138037070221,48.333751277085454,0
				-4.581946287060593,48.33343382916938,0
				-4.583167947770757,48.33294267941932,0
				-4.583464380148959,48.33275100993316,0
				-4.583697932931784,48.33251142205626,0
				-4.584784851651856,48.33187650870554,0
				-4.585772959579194,48.331037931714484,0
				-4.586716153509835,48.33027721058654,0
				-4.587578502246421,48.32948652770879,0
				-4.588449833782347,48.32867786200925,0
				-4.5890786297361075,48.327988988460916,0
				-4.5899050472753355,48.32720426023137,0
				-4.591018914393426,48.32600617843715,0
				-4.59191719432737,48.325029720834586,0
				-4.592968181850084,48.32363988371657,0
				-4.593866461784028,48.32268135316208,0
				-4.594737793319953,48.32151911055949,0
				-4.595456417267108,48.32065040668154,0
				-4.596498421990483,48.31945816126972,0
				-4.597342805128391,48.31851153439681,0
				-4.598142274269601,48.31766075339611,0
				-4.598995640206848,48.3167859918518,0
				-4.599723246953342,48.31595315690886,0
				-4.600558647291909,48.31501245638916,0
				-4.601277271239065,48.3141076897475,0
				-4.6021575855743295,48.31310703499722,0
				-4.6030738311069515,48.31199251006113,0
				-4.60374754105741,48.31105173608257,0
				-4.604412268208528,48.31014689878907,0
				-4.6047176833860695,48.30967949307048,0
				-4.604807511379463,48.3094877356324,0
				-4.605741722510765,48.308343168348806,0
				-4.606415432461223,48.30743828274199,0
				-4.607080159612342,48.30652139543308,0
				-4.607744886763459,48.30552658392411,0
				-4.608795874286174,48.30411823307297,0
				-4.60949653263465,48.303243237962214,0
				-4.610233122180484,48.302290315163454,0
				-4.611409868893951,48.300863894135084,0
				-4.612101544443087,48.30003079775971,0
				-4.612811185590903,48.29919768770708,0
				-4.6131794803638195,48.298778130703774,0
				-4.613960983906351,48.29793301249523,0
				-4.615173661817175,48.296602372324216,0
				-4.616071941751119,48.29569128325678,0
				-4.616952256086384,48.29488207859471,0
				-4.618173916796548,48.293767153260326,0
				-4.618955420339079,48.29293394038062,0
				-4.619880648671041,48.29204076893916,0
				-4.620958584591773,48.29093777043764,0
				-4.621883812923736,48.28999660602703,0
				-4.622898869249092,48.28904942932184,0
				-4.623824097581054,48.2882820833369,0
				-4.624812205508393,48.28753870585323,0
				-4.625800313435731,48.28678332726014,0
				-4.626429109389491,48.28637565795305,0
				-4.627462131313527,48.285662228788766,0
				-4.628324480050113,48.28475094334265,0
				-4.6292317427833956,48.2839775369421,0
				-4.630147988316018,48.28317414107457,0
				-4.630812715467137,48.282652526503945,0
				-4.631172027440715,48.28222084142766,0
				-4.631261855434109,48.28194504070756,0
				-4.631270838233449,48.281663242772396,0
				-4.631369649026182,48.28160328556315,0
				-4.631019319851944,48.281189578889766,0
				-4.631010337052604,48.280991717984925,0
				-4.63156727061165,48.280560018789195,0
				-4.632115221371356,48.280230246097716,0
				-4.632124204170696,48.28003238145487,0
				-4.631863702989851,48.27957669025409,0
				-4.631657098605044,48.27900707050273,0
				-4.630821698266477,48.27865330344084,0
				-4.630040194723946,48.27843144826334,0
				-4.629285639579432,48.27814963082954,0
				-4.6283514284481315,48.277867811831854,0
				-4.627578907704939,48.27760397986347,0
				-4.626653679372978,48.277334150296305,0
				-4.625270328274704,48.27687243860044,0
				-4.625144569083951,48.276812475734566,0
				-4.625108637886593,48.276620594088044,0
				-4.624821188307732,48.27660260514649,0
				-4.623824097581054,48.27658461619859,0
				-4.623680372791624,48.27659660883124,0
				-4.623644441594266,48.27668655348581,0
				-4.623761217985678,48.27664457933348,0
				-4.623860028778412,48.27638074101038,0
				-4.623797149183036,48.276194854096076,0
				-4.623824097581054,48.276104908570716,0
				-4.623949856771807,48.276062933937695,0
				-4.62437204834076,48.27627880310936,0
				-4.624461876334154,48.27620684682077,0
				-4.6241744267552924,48.275757117707194,0
				-4.62356359640021,48.27487563709261,0
				-4.623437837209458,48.27469574120994,0
				-4.6234019060121,48.27429996802525,0
				-4.62261141967023,48.273370488571636,0
				-4.622009572114488,48.27269885412266,0
				-4.621542466548837,48.2718832860666,0
				-4.621416707358085,48.271319576962775,0
				-4.62084180820036,48.27040203706493,0
				-4.620293857440656,48.26992826814603,0
				-4.619718958282931,48.26959242927412,0
				-4.618793729950968,48.26882478922957,0
				-4.618371538382015,48.2685609102852,0
				-4.6182457791912634,48.26851892941769,0
				-4.6182547619906025,48.26824905158381,0
				-4.618632039562859,48.26773927843034,0
				-4.618739833154932,48.267679304781886,0
				-4.618982368737097,48.26701359252929,0
				-4.6186769535595555,48.2668216738636,0
				-4.618865592345684,48.26658177451196,0
				-4.619377611908033,48.2662399159786,0
				-4.619844717473683,48.26602400414077,0
				-4.620132167052545,48.26557418486484,0
				-4.620437582230086,48.26472251612749,0
				-4.620742997407627,48.26424869424099,0
				-4.6207519802069665,48.26414673199145,0
				-4.620563341420838,48.26398479152756,0
				-4.620455547828765,48.2639308112582,0
				-4.620662152213572,48.263678902576366,0
				-4.6211831545752595,48.26351696062139,0
				-4.621659242940249,48.26330703509672,0
				-4.621937709719773,48.26285119382823,0
				-4.622566505673532,48.26243133641032,0
				-4.623024628439844,48.26219741434406,0
				-4.623554613600871,48.26136968146251,0
				-4.623815114781715,48.26082984840592,0
				-4.624812205508393,48.260122058598455,0
				-4.6250008442945205,48.25997810014301,0
				-4.625063723889896,48.25988812590126,0
				-4.624830171107072,48.259666188757166,0
				-4.624803222709053,48.25957621396317,0
				-4.624946947498484,48.25954622232976,0
				-4.6254589670608315,48.2588204194041,0
				-4.62547693265951,48.2586284697897,0
				-4.625360156268098,48.25834054400866,0
				-4.625800313435731,48.2578666626089,0
				-4.6262494534027025,48.257476756877786,0
				-4.626402160991473,48.25691288791396,0
				-4.626366229794115,48.25671493243237,0
				-4.626402160991473,48.25652297486535,0
				-4.62612369421195,48.25617504992718,0
				-4.625557777853566,48.25587511272395,0
				-4.624848136705751,48.255815125070896,0
				-4.624461876334154,48.25586911396184,0
				-4.624066633163219,48.255725143458555,0
				-4.623707321189642,48.255203246965415,0
				-4.6237432523869995,48.25420143063422,0
				-4.623949856771807,48.25372151162382,0
				-4.624030701965862,48.253325575028896,0
				-4.62357257919955,48.252953631781736,0
				-4.6229078520484315,48.25276166000862,0
				-4.623051576837863,48.25277965739317,0
				-4.62309649083456,48.25286364510337,0
				-4.622961748844468,48.252881642451804,0
				-4.622413798084762,48.252581685812835,0
				-4.622117365706561,48.25193377343167,0
				-4.622144314104579,48.251741797806766,0
				-4.622755144459661,48.2511898638465,0
				-4.623446820008797,48.250871899170434,0
				-4.6241564611566135,48.25081190561228,0
				-4.624740343113677,48.25111187269494,0
				-4.624937964699145,48.25123185903238,0
				-4.625773365037713,48.25111187269494,0
				-4.62612369421195,48.250919893965964,0
				-4.626384195392794,48.25068591890969,0
				-4.626779438563729,48.25051193675949,0
				-4.62709383654061,48.2501939678429,0
				-4.627749580892389,48.249828001156224,0
				-4.628189738060021,48.249432034232704,0
				-4.62868379202369,48.2490960598789,0
				-4.629393433171506,48.24895207019035,0
				-4.6296539343523495,48.248850077247596,0
				-4.630300695904789,48.24834010946417,0
				-4.631073216647981,48.248058125081684,0
				-4.63187268578919,48.24763814544225,0
				-4.632465550545594,48.24721816233333,0
				-4.633130277696712,48.24670817817956,0
				-4.633363830479538,48.2465941810221,0
				-4.634217196416784,48.24660018087885,0
				-4.634396852403572,48.246750177067874,0
				-4.634342955607536,48.24730215923267,0
				-4.634091437226032,48.24754214960894,0
				-4.633570434864344,48.2477341410943,0
				-4.632995535706621,48.24771014219828,0
				-4.632717068927097,48.247668144103,0
				-4.631423545822219,48.24809412317505,0
				-4.630866612263174,48.24819611763449,0
				-4.62996833232923,48.24856209606925,0
				-4.629393433171506,48.24882607887835,0
				-4.6288185340137815,48.24888607478017,0
				-4.628540067234259,48.24895806976887,0
				-4.628180755260682,48.24926404733336,0
				-4.627965168076535,48.24977400584827,0
				-4.627866357283801,48.24996598890488,0
				-4.627785512089746,48.25025996155518,0
				-4.6275429765075815,48.25049393857202,0
				-4.627183664534004,48.250673920159834,0
				-4.627102819339949,48.250595928216704,0
				-4.626330298596757,48.25099788541206,0
				-4.625701502642997,48.251357844381864,0
				-4.625072706689236,48.25153782291088,0
				-4.624722377514998,48.251657808242875,0
				-4.6233210608180455,48.25196376955757,0
				-4.622943783245789,48.252131747535465,0
				-4.622548540074853,48.25218574033903,0
				-4.622189228101276,48.252473700989476,0
				-4.621785002131002,48.2527676591375,0
				-4.621344844963369,48.25359553213273,0
				-4.621084343782526,48.253931476748456,0
				-4.620446565029425,48.25432740862357,0
				-4.620150132651224,48.2549692916254,0
				-4.620087253055848,48.255053275717536,0
				-4.619817769075665,48.25511326426978,0
				-4.619700992684252,48.25517925159551,0
				-4.619539302296142,48.25554517975595,0
				-4.619278801115299,48.25577913244508,0
				-4.6190721967304915,48.255911105281804,0
				-4.618973385937758,48.25609106768869,0
				-4.618479331974089,48.25710484400828,0
				-4.617778673625612,48.258052616596345,0
				-4.617239705665246,48.25893438914461,0
				-4.616682772106201,48.25960020725713,0
				-4.616179735343192,48.26008007075776,0
				-4.615847371767633,48.260499947603684,0
				-4.61557788778745,48.261141752649245,0
				-4.615353317803964,48.26157961499127,0
						</coordinates>	</LineString></Placemark>
	</Document>
</kml>
